ORBCOMM-X [-]           
1 21576U 91050C   24089.93260440  .00000805  00000+0  25629-3 0  9996
2 21576  98.3961 158.4179 0004888  91.2880 268.8870 14.42421872718055
ORBCOMM FM01 [-]        
1 23545U 95017A   24090.19402296  .00007425  00000+0  10096-2 0  9994
2 23545  69.9662  91.7438 0009086 274.7790  85.2321 14.79116768546961
ORBCOMM FM02 [-]        
1 23546U 95017B   24089.80539341  .00006830  00000+0  93871-3 0  9995
2 23546  69.9676 112.0449 0010872 271.2168  88.7735 14.78695320546201
ORBCOMM FM08 [-]        
1 25112U 97084A   24089.97766596  .00003121  00000+0  98007-3 0  9990
2 25112  45.0154 334.3750 0006935 163.8026 196.3047 14.42255141377169
ORBCOMM FM10 [-]        
1 25113U 97084B   24090.05148472  .00003117  00000+0  98077-3 0  9991
2 25113  45.0166 335.8473 0004807 131.9764 228.1496 14.42172896377338
ORBCOMM FM11 [+]        
1 25114U 97084C   24089.78965908  .00003011  00000+0  95097-3 0  9993
2 25114  45.0152 337.1319 0005492 131.5809 228.5512 14.42054973377254
ORBCOMM FM12 [-]        
1 25115U 97084D   24089.95625564  .00002919  00000+0  92410-3 0  9996
2 25115  45.0159 336.0190 0004553 131.7514 228.3726 14.42024376377078
ORBCOMM FM09 [-]        
1 25116U 97084E   24089.96660420  .00002567  00000+0  81836-3 0  9997
2 25116  45.0165 336.6442 0005743 117.7895 242.3537 14.41989269377289
